[{"OBJECT_NAME":"STARLINK-32923","OBJECT_ID":"2025-037W","EPOCH":"2026-03-09T22:39:33.205248","MEAN_MOTION":14.98352474,"ECCENTRICITY":0.00028109,"INCLINATION":70.0035,"RA_OF_ASC_NODE":353.6756,"ARG_OF_PERICENTER":267.795,"MEAN_ANOMALY":92.2888,"EPHEMERIS_TYPE":0,"CLASSIFICATION_TYPE":"U","NORAD_CAT_ID":63097,"ELEMENT_SET_NO":999,"REV_AT_EPOCH":5864,"BSTAR":0.00026772695,"MEAN_MOTION_DOT":3.105e-5,"MEAN_MOTION_DDOT":0},{"OBJECT_NAME":"TURKSAT-3USAT","OBJECT_ID":"2013-018C","EPOCH":"2026-03-09T19:52:59.932416","MEAN_MOTION":14.95734186,"ECCENTRICITY":0.00131837,"INCLINATION":97.7913,"RA_OF_ASC_NODE":160.1317,"ARG_OF_PERICENTER":74.0986,"MEAN_ANOMALY":286.1687,"EPHEMERIS_TYPE":0,"CLASSIFICATION_TYPE":"U","NORAD_CAT_ID":39152,"ELEMENT_SET_NO":999,"REV_AT_EPOCH":69623,"BSTAR":0.00039789997,"MEAN_MOTION_DOT":4.382e-5,"MEAN_MOTION_DDOT":0}]
